*******************************************************************************
JPL/HORIZONS                  109P/Swift-Tuttle            2023-May-07 13:16:48
Rec #:90000974 (+COV) Soln.date: 2001-Oct-09_15:34:49    # obs: 652 (1737-1995)
 
IAU76/J2000 helio. ecliptic osc. elements (au, days, deg., period=Julian yrs):
 
  EPOCH=  2450000.5 ! 1995-Oct-10.0000000 (TDB)    RMSW= n.a.
   EC= .9632257550460384   QR= .9595161550688684   TP= 2448968.4997845562
   OM= 139.3811920815948   W= 152.9821676305871    IN= 113.4538169971712
   A= 26.09206949782666    MA= 7.631696167124793   ADIST= 51.22462284058444
   PER= 133.2818438405     N= .007395053           ANGMOM= .023609822
   DAN= 13.27557           DDN= 1.0138             L= 330.8536722
   B= 24.6287339           MOID= .00089214         TP= 1992-Dec-11.9997845562
 
Comet physical (GM= km^3/s^2; RAD= km):
   GM= n.a.                RAD= 13.
   M1=  4.5      M2=  8.5      k1=  15.    k2=  10.     PHCOF= n.a.
 
COMET comments 
1: soln ref.= JPL#32, data arc: 1737-07-08 to 1995-03-29
2: k1=15.0, k2=10.0;
*******************************************************************************


*******************************************************************************
Ephemeris / WWW_USER Sun May  7 13:16:48 2023 Pasadena, USA      / Horizons
*******************************************************************************
Target body name: 109P/Swift-Tuttle               {source: JPL#32}
Center body name: Sun (10)                        {source: DE441}
Center-site name: BODY CENTER
*******************************************************************************
Start time      : A.D. 1600-Jan-01 00:00:00.0000 TDB
Stop  time      : A.D. 2023-Jan-01 00:00:00.0000 TDB
Step-size       : 14400 minutes
*******************************************************************************
Center geodetic : 0.0, 0.0, 0.0                   {E-lon(deg),Lat(deg),Alt(km)}
Center cylindric: 0.0, 0.0, 0.0                   {E-lon(deg),Dxy(km),Dz(km)}
Center radii    : 696000.0, 696000.0, 696000.0 km {Equator_a, b, pole_c}
Small perturbers: Yes                             {source: SB441-N16}
Output units    : AU-D
Calendar mode   : Mixed Julian/Gregorian
Output type     : GEOMETRIC cartesian states
Output format   : 3 (position, velocity, LT, range, range-rate)
Reference frame : Ecliptic of J2000.0
*******************************************************************************
Initial IAU76/J2000 heliocentric ecliptic osculating elements (au, days, deg.):
  EPOCH=  2450000.5 ! 1995-Oct-10.0000000 (TDB)    RMSW= n.a.                  
   EC= .9632257550460384   QR= .9595161550688684   TP= 2448968.4997845562      
   OM= 139.3811920815948   W= 152.9821676305871    IN= 113.4538169971712       
  Equivalent ICRF heliocentric cartesian coordinates (au, au/d):
   X=-5.961434623156935E+00  Y= 3.700438936751722E+00  Z=-6.922297729421842E+00
  VX=-5.226325508711362E-03 VY= 3.593351825095821E-03 VZ=-2.911438559166090E-03
Comet physical (GM= km^3/s^2; RAD= km):                                        
   GM= n.a.                RAD= 13.                                            
   M1=  4.5      M2=  8.5      k1=  15.    k2=  10.     PHCOF= n.a.            
*******************************************************************************
            JDTDB,            Calendar Date (TDB),                      X,                      Y,                      Z,                     VX,                     VY,                     VZ,                     LT,                     RG,                     RR,
**************************************************************************************************************************************************************************************************************************************************************************
$$SOE
2351677.500000000, A.D. 1726-Jul-29 00:00:00.0000, -1.863446547110979E+01,  1.379633297501086E+01, -3.761588343718073E+00,  2.928759069763857E-03, -1.648649362159694E-03,  1.481658422253996E-03,  1.356609697104222E-01,  2.348896876874229E+01, -3.529084873191286E-03,
2351687.500000000, A.D. 1726-Aug-08 00:00:00.0000, -1.860515721250954E+01,  1.377983057320120E+01, -3.746767445229954E+00,  2.932894750660596E-03, -1.651833550323466E-03,  1.482521367677357E-03,  1.354570068758220E-01,  2.345365369866625E+01, -3.533931993903186E-03,
2351697.500000000, A.D. 1726-Aug-18 00:00:00.0000, -1.857580753204124E+01,  1.376329625196028E+01, -3.731937914737798E+00,  2.937043650024410E-03, -1.655033316517754E-03,  1.483384803069337E-03,  1.352527635881545E-01,  2.341829006964688E+01, -3.538796860932617E-03,
2351707.500000000, A.D. 1726-Aug-28 00:00:00.0000, -1.854641629153934E+01,  1.374672985488639E+01, -3.717099747843002E+00,  2.941206926440580E-03, -1.658248663279964E-03,  1.484248637876901E-03,  1.350482387937223E-01,  2.338287769924214E+01, -3.543680370185412E-03,
2351717.500000000, A.D. 1726-Sep-07 00:00:00.0000, -1.851698334293953E+01,  1.373013122828394E+01, -3.702252940784627E+00,  2.945385356088137E-03, -1.661479135268822E-03,  1.485112832266712E-03,  1.348434314038515E-01,  2.334741639895400E+01, -3.548582852700008E-03,
2351727.500000000, A.D. 1726-Sep-17 00:00:00.0000, -1.848750853301134E+01,  1.371350022301256E+01, -3.687397490061564E+00,  2.949579198622757E-03, -1.664724391660245E-03,  1.485977365028620E-03,  1.346383403225380E-01,  2.331190597901521E+01, -3.553504299488963E-03,
2351737.500000000, A.D. 1726-Sep-27 00:00:00.0000, -1.845799170681116E+01,  1.369683668911347E+01, -3.672533392730199E+00,  2.953788787005181E-03, -1.667985095818074E-03,  1.486842110648563E-03,  1.344329644443090E-01,  2.327634624801910E+01, -3.558445333731538E-03,
2351747.500000000, A.D. 1726-Oct-07 00:00:00.0000, -1.842843269460941E+01,  1.368014046660872E+01, -3.657660648493400E+00,  2.958017245306753E-03, -1.671261848581043E-03,  1.487706680310819E-03,  1.342273025649767E-01,  2.324073699746701E+01, -3.563408714181567E-03,
2351757.500000000, A.D. 1726-Oct-17 00:00:00.0000, -1.839883128880209E+01,  1.366341141611872E+01, -3.642779259415609E+00,  2.962267255594778E-03, -1.674549535329051E-03,  1.488571187304935E-03,  1.340213533797222E-01,  2.320507800143655E+01, -3.568393562307967E-03,
2351767.500000000, A.D. 1726-Oct-27 00:00:00.0000, -1.836918729147106E+01,  1.364664945183040E+01, -3.627889222844703E+00,  2.966534804236547E-03, -1.677844606225894E-03,  1.489436240105163E-03,  1.338151158067758E-01,  2.316936907262512E+01, -3.573394684402988E-03,
2351777.500000000, A.D. 1726-Nov-06 00:00:00.0000, -1.833950054361623E+01,  1.362985449600136E+01, -3.612990532345478E+00,  2.970817136994258E-03, -1.681148047983817E-03,  1.490301971004342E-03,  1.336085889676229E-01,  2.313361005892263E+01, -3.578410480676032E-03,
2351787.500000000, A.D. 1726-Nov-16 00:00:00.0000, -1.830977090248152E+01,  1.361302646001441E+01, -3.598083181220479E+00,  2.975113345785148E-03, -1.684460734819132E-03,  1.491168364559623E-03,  1.334017720219100E-01,  2.309780081482636E+01, -3.583440726701140E-03,
2351797.500000000, A.D. 1726-Nov-26 00:00:00.0000, -1.827999823282627E+01,  1.359616524882232E+01, -3.583167162802158E+00,  2.979422711568593E-03, -1.687783170918154E-03,  1.492035434457426E-03,  1.331946641428114E-01,  2.306194119717590E+01, -3.588485135107370E-03,
2351807.500000000, A.D. 1726-Dec-06 00:00:00.0000, -1.825018240723763E+01,  1.357927076206130E+01, -3.568242470163555E+00,  2.983744376190202E-03, -1.691115986192720E-03,  1.492903214153719E-03,  1.329872645219584E-01,  2.302603106600653E+01, -3.593543385917945E-03,
2351817.500000000, A.D. 1726-Dec-16 00:00:00.0000, -1.822032330750114E+01,  1.356234289047627E+01, -3.553309096115659E+00,  2.988077397980216E-03, -1.694460438612376E-03,  1.493771709667549E-03,  1.327795723635035E-01,  2.299007028352153E+01, -3.598615459850324E-03,
2351827.500000000, A.D. 1726-Dec-26 00:00:00.0000, -1.819042082193495E+01,  1.354538150580725E+01, -3.538367034129340E+00,  2.992421778985435E-03, -1.697819153581196E-03,  1.494640741851452E-03,  1.325715868382229E-01,  2.295405870614525E+01, -3.603702865248856E-03,
2351837.500000000, A.D. 1727-Jan-05 00:00:00.0000, -1.816047482159644E+01,  1.352838645353602E+01, -3.523416281009288E+00,  2.996781212798925E-03, -1.701193684605105E-03,  1.495509887193428E-03,  1.323633069521598E-01,  2.291799616177942E+01, -3.608809367958588E-03,
2351847.500000000, A.D. 1727-Jan-15 00:00:00.0000, -1.813048514112338E+01,  1.351135759419939E+01, -3.508456835226224E+00,  3.001157351713267E-03, -1.704579839254884E-03,  1.496379384326824E-03,  1.321547315982240E-01,  2.288188245873732E+01, -3.613933825400942E-03,
2351857.500000000, A.D. 1727-Jan-25 00:00:00.0000, -1.810045163115702E+01,  1.349429482094135E+01, -3.493488690600285E+00,  3.005546664755820E-03, -1.707976815181376E-03,  1.497249677653264E-03,  1.319458598505100E-01,  2.284571743670335E+01, -3.619073017380599E-03,
2351867.500000000, A.D. 1727-Feb-04 00:00:00.0000, -1.807037416732799E+01,  1.347719801412828E+01, -3.478511839159268E+00,  3.009948170805837E-03, -1.711386879486949E-03,  1.498120724404660E-03,  1.317366908532696E-01,  2.280950094750933E+01, -3.624227482702151E-03,
2351877.500000000, A.D. 1727-Feb-14 00:00:00.0000, -1.804025262499420E+01,  1.346006703483059E+01, -3.463526274040356E+00,  3.014362502806036E-03, -1.714811477516320E-03,  1.498992394074393E-03,  1.315272236855526E-01,  2.277323283169764E+01, -3.629398541950408E-03,
2351887.500000000, A.D. 1727-Feb-24 00:00:00.0000, -1.801008687183535E+01,  1.344290173363956E+01, -3.448531989527922E+00,  3.018790459736321E-03, -1.718251348989056E-03,  1.499864589522091E-03,  1.313174573573608E-01,  2.273691291785547E+01, -3.634587236242712E-03,
2351897.500000000, A.D. 1727-Mar-06 00:00:00.0000, -1.797987676824246E+01,  1.342570195528319E+01, -3.433528980744562E+00,  3.023232675468477E-03, -1.721706999859921E-03,  1.500737236116663E-03,  1.311073908268832E-01,  2.270054102559876E+01, -3.639794341491953E-03,
